TEVEL2-3                
1 63218U 25052J   26068.64540225  .00020365  00000+0  69446-3 0  9991
2 63218  97.3994 324.7775 0004761 105.7353 254.4413 15.30377031 54855
STARLINK-35830          
1 66284U 25247V   26068.56624916  .00017388  00000+0  59804-3 0  9992
2 66284  53.1572 192.0895 0001010  83.5422 276.5694 15.30187075 21011
